STARLINK-3832           
1 52646C 22052BA  22328.15812500  .00016555  00000-0  10381-2 0  3286
2 52646  53.2182 253.0068 0003048  27.9417 130.5448 15.08820876    16
STARLINK-3846           
1 52647C 22052BB  22328.16368056 -.00011654  00000-0 -73079-3 0  3281
2 52647  53.2188 252.9889 0002859  29.3630 254.1246 15.08847773    18
STARLINK-3854           
1 52648C 22052BC  22328.16159722 -.00009681  00000-0 -60692-3 0  3284
2 52648  53.2182 252.9906 0003294  25.2119 172.1693 15.08853251    17
STARLINK-3868           
1 52649C 22052BD  22328.16298611  .00014332  00000-0  89857-3 0  3287
2 52649  53.2189 252.9919 0002756  25.4862 234.2827 15.08827333    19
STARLINK-3891           
1 52650C 22052BE  22328.16229167  .00005814  00000-0  36455-3 0  3280
2 52650  53.2187 242.9826 0003094  28.0508 182.9352 15.08830290    15
STARLINK-4004           
1 52656C 22053A   22328.15951389  .00003567  00000-0  22376-3 0  3284
2 52656  53.2139 147.9972 0001798  62.2259 281.2580 15.08823191    14
STARLINK-4084           
1 52657C 22053B   22328.16229167  .00003905  00000-0  24486-3 0  3288
2 52657  53.2141 147.9841 0002378  44.5754 274.0811 15.08833986    11
STARLINK-4082           
1 52658C 22053C   22328.16090278  .00003726  00000-0  23361-3 0  3280
2 52658  53.2139 147.9885 0002980  42.5426 288.5157 15.08835713    13
STARLINK-3960           
1 52659C 22053D   22328.15743056  .00003811  00000-0  23893-3 0  3284
2 52659  53.2151 147.9975 0002285  53.3939 253.5972 15.08836369    10
STARLINK-4081           
1 52660C 22053E   22328.16229167  .00003075  00000-0  19280-3 0  3286
2 52660  53.2146 147.9744 0002502  47.9239 330.6664 15.08844020    12
STARLINK-4042           
1 52661C 22053F   22328.16159722  .00002617  00000-0  16410-3 0  3289
2 52661  53.2145 147.9822 0002393  48.3444 346.3870 15.08840186    12
STARLINK-4044           
1 52662C 22053G   22328.16298611  .00002330  00000-0  14611-3 0  3284
2 52662  53.2138 147.9978 0002471  45.1862  37.2099 15.08840993    18
STARLINK-4037           
1 52663C 22053H   22328.15881944  .00002526  00000-0  15837-3 0  3289
2 52663  53.2137 148.0099 0003056  40.7655  39.0361 15.08844803    11
STARLINK-4070           
1 52664C 22053J   22328.16020833  .00002351  00000-0  14746-3 0  3287
2 52664  53.2144 148.0058 0002754  45.5311   1.8223 15.08828947    16
STARLINK-4064           
1 52665C 22053K   22328.16159722  .00003784  00000-0  23729-3 0  3280
2 52665  53.2146 148.0001 0002295  46.4083 108.4731 15.08829345    14
STARLINK-4079           
1 52666C 22053L   22328.16020833  .00002757  00000-0  17289-3 0  3284
2 52666  53.2137 148.0041 0002341  48.1348  59.1858 15.08834094    13
STARLINK-4076           
1 52667C 22053M   22328.16298611  .00004133  00000-0  25907-3 0  3282
2 52667  53.2147 147.9942 0002016  51.4366 130.9748 15.08842899    17
STARLINK-4067           
1 52668C 22053N   22328.16159722  .00002970  00000-0  18631-3 0  3285
2 52668  53.2146 148.0014 0002490  42.1686  92.7226 15.08826611    17
STARLINK-3972           
1 52669C 22053P   22328.16229167  .00004900  00000-0  30711-3 0  3285
2 52669  53.2149 148.0001 0002423  48.7817 189.8734 15.08847409    11
STARLINK-4075           
1 52670C 22053Q   22328.16020833 -.00008676  00000-0 -54413-3 0  3287
2 52670  53.2146 148.0060 0002592  41.4759 100.6988 15.08840968    12
STARLINK-4071           
1 52671C 22053R   22328.16298611  .00004518  00000-0  28330-3 0  3287
2 52671  53.2142 147.9914 0002383  52.1624 210.2574 15.08836990    12
STARLINK-4073           
1 52672C 22053S   22328.16229167  .00004321  00000-0  27098-3 0  3280
2 52672  53.2147 147.9967 0002322  41.7749 156.8800 15.08831266    19
STARLINK-3976           
1 52673C 22053T   22328.16368056  .00004332  00000-0  27168-3 0  3282
2 52673  53.2155 147.9819 0002379  40.5658 265.6360 15.08827083    15
STARLINK-3936           
1 52674C 22053U   22328.16090278  .00004312  00000-0  27046-3 0  3284
2 52674  53.2138 148.0005 0002592  47.7523 163.2510 15.08826367    17
STARLINK-3934           
1 52675C 22053V   22328.15881944  .00003407  00000-0  21360-3 0  3289
2 52675  53.2159 137.9938 0002445  45.8163 248.9346 15.08837973    12
STARLINK-4006           
1 52676C 22053W   22328.16368056  .00004420  00000-0  27713-3 0  3289
2 52676  53.2147 147.9869 0002463  57.7969 228.2889 15.08837499    16
STARLINK-4028           
1 52677C 22053X   22328.15951389  .00004003  00000-0  25100-3 0  3281
2 52677  53.2146 137.9937 0002543  46.1347 292.3730 15.08833441    12
STARLINK-4074           
1 52678C 22053Y   22328.15743056  .00003539  00000-0  22193-3 0  3284
2 52678  53.2151 138.0054 0002467  45.0148 237.0268 15.08830912    15
STARLINK-4031           
1 52679C 22053Z   22328.16229167  .00004361  00000-0  27345-3 0  3286
2 52679  53.2151 137.9869 0002224  52.0677   1.5799 15.08836196    17
STARLINK-3774           
1 52680C 22053AA  22328.16020833 -.00011297  00000-0 -70864-3 0  3289
2 52680  53.2141 137.9876 0002390  47.4411 274.9376 15.08837333    15
STARLINK-4068           
1 52681C 22053AB  22328.15951389  .00003981  00000-0  24953-3 0  3285
2 52681  53.2156 137.9884 0002941  43.3811  15.1488 15.08843772    15
STARLINK-4017           
1 52682C 22053AC  22328.16298611  .00003636  00000-0  22804-3 0  3289
2 52682  53.2160 137.9727 0002777  44.8188 332.6081 15.08825437    11
STARLINK-4039           
1 52683C 22053AD  22328.16159722  .00004357  00000-0  27320-3 0  3288
2 52683  53.2157 137.9808 0002182  54.4773  55.4002 15.08832805    15
STARLINK-4014           
1 52684C 22053AE  22328.16229167  .00003986  00000-0  24994-3 0  3281
2 52684  53.2147 137.9814 0002654  48.1584 345.4430 15.08833467    18
STARLINK-4029           
1 52685C 22053AF  22328.15881944 -.00008638  00000-0 -54176-3 0  3284
2 52685  53.2149 137.9960 0002373  39.3101  95.4998 15.08839135    17
STARLINK-4005           
1 52686C 22053AG  22328.16020833 -.00014504  00000-0 -90933-3 0  3288
2 52686  53.2144 137.9932 0002340  51.3901  30.9498 15.08859075    12
STARLINK-3981           
1 52687C 22053AH  22328.15743056 -.00003479  00000-0 -21819-3 0  3283
2 52687  53.2160 138.0126 0002737  47.0067 100.2922 15.08831707    18
STARLINK-4032           
1 52688C 22053AJ  22328.16298611  .00004094  00000-0  25663-3 0  3280
2 52688  53.2150 137.9773 0002656  46.3099  85.8935 15.08846666    13
STARLINK-4078           
1 52689C 22053AK  22328.16229167  .00003455  00000-0  21657-3 0  3280
2 52689  53.2169 137.9975 0002586  42.5523 191.1119 15.08843331    11
STARLINK-4035           
1 52690C 22053AL  22328.16159722  .00004174  00000-0  26176-3 0  3281
2 52690  53.2158 137.9932 0002325  46.5376  83.3153 15.08828456    16
STARLINK-3945           
1 52691C 22053AM  22328.16298611  .00003095  00000-0  19404-3 0  3280
2 52691  53.2164 137.9869 0001696  61.4696 195.9625 15.08839502    12
STARLINK-3993           
1 52692C 22053AN  22328.16159722  .00003544  00000-0  22215-3 0  3283
2 52692  53.2156 137.9891 0002165  57.1284 132.7422 15.08844439    15
STARLINK-3946           
1 52693C 22053AP  22328.16159722  .00003251  00000-0  20387-3 0  3287
2 52693  53.2163 137.9955 0002572  48.1335 241.7258 15.08831900    11
STARLINK-4072           
1 52694C 22053AQ  22328.16159722  .00003464  00000-0  21718-3 0  3283
2 52694  53.2157 137.9890 0002474  48.4933 161.3867 15.08843132    14
STARLINK-4041           
1 52695C 22053AR  22328.15812500  .00004404  00000-0  27608-3 0  3282
2 52695  53.2171 143.0143 0002212  48.4602 189.8394 15.08844856    17
STARLINK-4025           
1 52696C 22053AS  22328.16020833  .00003312  00000-0  20770-3 0  3284
2 52696  53.2165 137.9979 0002428  41.0444 221.2753 15.08834286    18
STARLINK-4018           
1 52697C 22053AT  22328.16159722  .00003848  00000-0  24128-3 0  3280
2 52697  53.2169 142.9963 0003124  42.7591 174.4284 15.08829149    17
STARLINK-4030           
1 52698C 22053AU  22328.16298611 -.00009091  00000-0 -57019-3 0  3285
2 52698  53.2153 142.9829 0002479  38.7953 125.9765 15.08838893    12
STARLINK-3987           
1 52699C 22053AV  22328.16090278  .00003332  00000-0  20897-3 0  3289
2 52699  53.2143 132.9842 0002670  39.8239 248.5924 15.08828130    10
STARLINK-4034           
1 52700C 22053AW  22328.16020833  .00003258  00000-0  20433-3 0  3285
2 52700  53.2155 142.9915 0002257  47.6703 141.9767 15.08826156    19
STARLINK-4003           
1 52701C 22053AX  22328.16368056  .00001933  00000-0  12118-3 0  3287
2 52701  53.2155 127.9889 0002084  44.9357 351.2515 15.08837903    15
STARLINK-4033           
1 52702C 22053AY  22328.15673611  .00004321  00000-0  27097-3 0  3289
2 52702  53.2160 143.0169 0002178  48.0491 162.7025 15.08830139    15
STARLINK-4020           
1 52703C 22053AZ  22328.16020833  .00000683  00000-0  42864-4 0  3280
2 52703  53.2159 128.0019 0002826  48.8761  28.5098 15.08830678    16
STARLINK-3999           
1 52704C 22053BA  22328.16090278  .00002802  00000-0  17575-3 0  3286
2 52704  53.2152 128.0001 0002714  45.8649 315.2932 15.08825525    17
STARLINK-3844           
1 52705C 22053BB  22328.15743056  .00003535  00000-0  22166-3 0  3281
2 52705  53.2162 128.0191 0002750  40.9736   1.2825 15.08831453    12
STARLINK-3970           
1 52706C 22053BC  22328.16368056  .00003071  00000-0  19255-3 0  3286
2 52706  53.2159 127.9903 0002871  42.3205  13.9139 15.08841263    17
STARLINK-4007           
1 52707C 22053BD  22328.15812500 -.00003886  00000-0 -24369-3 0  3282
2 52707  53.2161 128.0126 0002611  40.7413  40.1070 15.08834777    13
STARLINK-3962           
1 52708C 22053BE  22328.15881944  .00005330  00000-0  33417-3 0  3289
2 52708  53.2162 127.9997 0003048  47.2923 217.3093 15.08838968    11
STARLINK-4091           
1 52830C 22062A   22328.15951389  .00006232  00000-0  39078-3 0  3287
2 52830  53.2167  27.9893 0002087  31.0826 272.4938 15.08833381    15
